1 44748U 19074AM  23323.93851794  .00003726  00000-0  26892-3 0  9995
2 44748  53.0550  40.9013 0001326  83.4919 276.6221 15.06400427221640
1 44748U 19074AM  23324.53563205  .00007159  00000-0  49880-3 0  9995
2 44748  53.0552  38.2210 0001371  82.6913 277.4231 15.06416873221569
1 44748U 19074AM  23324.73466801  .00009038  00000-0  62446-3 0  9992
2 44748  53.0550  37.3271 0001373  82.6163 277.4982 15.06424935221597
1 44748U 19074AM  23324.73466801  .00009038  00000-0  62446-3 0  9992
2 44748  53.0550  37.3271 0001373  82.6163 277.4982 15.06424935221766
1 44748U 19074AM  23325.46449048  .00001015  00000-0  87003-4 0  9991
2 44748  53.0547  34.0502 0001490  93.1497 266.9662 15.06397835221700
1 44748U 19074AM  23325.46449048  .00001015  00000-0  87003-4 0  9991
2 44748  53.0547  34.0502 0001490  93.1497 266.9662 15.06397835221878
1 44748U 19074AM  23325.66353132  .00010335  00000-0  71160-3 0  9992
2 44748  53.0547  33.1566 0001344  91.9579 268.1564 15.06404712221736
1 44748U 19074AM  23325.66353132  .00010335  00000-0  71160-3 0  9992
2 44748  53.0547  33.1566 0001344  91.9579 268.1564 15.06404712221905
1 44748U 19074AM  23326.45968414  .00023084  00000-0  15620-2 0  9998
2 44748  53.0552  29.5824 0001384  90.9689 269.1458 15.06436418221857
1 44748U 19074AM  23326.45968414  .00023084  00000-0  15620-2 0  9998
2 44748  53.0552  29.5824 0001384  90.9689 269.1458 15.06436418222027
1 44748U 19074AM  23327.38854375  .00018296  00000-0  12439-2 0  9995
2 44748  53.0554  25.4127 0001777 134.5027 225.6107 15.06402652222163
1 44748U 19074AM  23327.58758829  .00006073  00000-0  42634-3 0  9995
2 44748  53.0552  24.5193 0001216  64.3258 295.7856 15.06392860222021
1 44748U 19074AM  23327.58758829  .00006073  00000-0  42634-3 0  9995
2 44748  53.0552  24.5193 0001216  64.3258 295.7856 15.06392860222199
1 44748U 19074AM  23328.38376038  .00008143  00000-0  56515-3 0  9995
2 44748  53.0558  20.9431 0001613 113.6220 246.4939 15.06386669222317
1 44748U 19074AM  23328.58280200  .00006212  00000-0  43566-3 0  9999
2 44748  53.0559  20.0499 0001508 111.8170 248.2979 15.06388301222173
1 44748U 19074AM  23329.44531692  .00005282  00000-0  37326-3 0  9992
2 44748  53.0550  16.1773 0001481 109.0618 251.0532 15.06393719222302
1 44748U 19074AM  23330.10877532  .00017030  00000-0  11585-2 0  9995
2 44748  53.0545  13.1990 0001463 108.9541 251.1606 15.06428881222578
1 44748U 19074AM  23330.44050148  .00017470  00000-0  11875-2 0  9998
2 44748  53.0545  11.7109 0001478 107.2820 252.8330 15.06440748222457
1 44748U 19074AM  23330.97128233 -.00007680  00000-0 -49725-3 0  9997
2 44748  53.0551   9.3302 0001310  95.5860 264.5278 15.06397316222701
1 44748U 19074AM  23331.36937888  .00007314  00000-0  51003-3 0  9999
2 44748  53.0546   7.5432 0001575  81.9647 278.1521 15.06350991222591
1 44748U 19074AM  23331.36937888  .00007314  00000-0  51003-3 0  9999
2 44748  53.0546   7.5432 0001575  81.9647 278.1521 15.06350991222760
1 44748U 19074AM  23332.36460090  .00017972  00000-0  12228-2 0  9992
2 44748  53.0549   3.0755 0001624  79.9634 280.1538 15.06385768222749
1 44748U 19074AM  23332.36460090  .00017972  00000-0  12228-2 0  9992
2 44748  53.0549   3.0755 0001624  79.9634 280.1538 15.06385768222918
1 44748U 19074AM  23333.29345455  .00015130  00000-0  10321-2 0  9998
2 44748  53.0551 358.9037 0001587  89.6638 270.4533 15.06412984222880
1 44748U 19074AM  23333.29345455  .00015130  00000-0  10321-2 0  9998
2 44748  53.0551 358.9037 0001587  89.6638 270.4533 15.06412984223050
1 44748U 19074AM  23334.48767332  .00014317  00000-0  97686-3 0  9998
2 44748  53.0555 353.5423 0001669  82.5654 277.5525 15.06445757223238
1 44748U 19074AM  23335.08479694 -.00000845  00000-0 -37787-4 0  9996
2 44748  53.0552 350.8544 0002239 111.0120 249.1108 15.06406227223320
1 44748U 19074AM  23335.28384068 -.00000655  00000-0 -25050-4 0  9997
2 44748  53.0561 349.9709 0001569  85.1356 274.9812 15.06398728223187
1 44748U 19074AM  23335.28384068 -.00000655  00000-0 -25050-4 0  9997
2 44748  53.0561 349.9709 0001569  85.1356 274.9812 15.06398728223356
1 44748U 19074AM  23336.01366901  .00011986  00000-0  82259-3 0  9995
2 44748  53.0551 346.6902 0001839  99.8327 260.2869 15.06380124223467
1 44748U 19074AM  23336.34540272  .00043883  00000-0  29444-2 0  9993
2 44748  53.0549 345.2038 0001606  78.7121 281.4048 15.06428257223340
1 44748U 19074AM  23336.34540272  .00043883  00000-0  29444-2 0  9993
2 44748  53.0549 345.2038 0001606  78.7121 281.4048 15.06428257223519
1 44748U 19074AM  23336.80983276  .00007699  00000-0  53524-3 0  9991
2 44748  53.0559 343.1186 0001575 109.2891 250.8268 15.06396699223417
1 44748U 19074AM  23336.80983276  .00007699  00000-0  53524-3 0  9991
2 44748  53.0559 343.1186 0001575 109.2891 250.8268 15.06396699223585
1 44748U 19074AM  23336.94252999  .00000702  00000-0  66064-4 0  9999
2 44748  53.0555 342.5241 0001687  92.2346 267.8837 15.06380871223604
1 44748U 19074AM  23337.34061454  .00003024  00000-0  22191-3 0  9990
2 44748  53.0556 340.7373 0001610  89.0272 271.0902 15.06388135223497
1 44748U 19074AM  23338.00408766  .00011525  00000-0  79144-3 0  9990
2 44748  53.0554 337.7582 0001623  87.7734 272.3441 15.06396518223761
1 44748U 19074AM  23338.26947456  .00010807  00000-0  74325-3 0  9990
2 44748  53.0549 336.5664 0001662  86.9768 273.1411 15.06401836223636
1 44748U 19074AM  23339.13197893  .00006720  00000-0  46949-3 0  9999
2 44748  53.0556 332.6950 0001707  97.5066 262.6117 15.06410276223935
1 44748U 19074AM  23339.26467190  .00006762  00000-0  47230-3 0  9993
2 44748  53.0551 332.0992 0001678  88.9137 271.2044 15.06411808223780
1 44748U 19074AM  23340.19351041  .00008741  00000-0  60449-3 0  9990
2 44748  53.0550 327.9292 0001676  93.1842 266.9338 15.06431292224095
1 44748U 19074AM  23340.39254572  .00008509  00000-0  58890-3 0  9992
2 44748  53.0551 327.0357 0001683  93.7971 266.3210 15.06435036223953
1 44748U 19074AM  23341.12236513 -.00004753  00000-0 -30041-3 0  9996
2 44748  53.0551 323.7592 0001615  92.1569 267.9605 15.06400151224235
1 44748U 19074AM  23341.25506041 -.00006164  00000-0 -39531-3 0  9997
2 44748  53.0550 323.1647 0001412  89.4632 270.6518 15.06393788224088
1 44748U 19074AM  23342.18392013  .00001684  00000-0  13193-3 0  9998
2 44748  53.0546 318.9975 0001388  90.5745 269.5403 15.06397054224393
1 44748U 19074AM  23342.31661423  .00002641  00000-0  19616-3 0  9997
2 44748  53.0547 318.4023 0001396  94.5394 265.5754 15.06397391224249
1 44748U 19074AM  23343.17912815  .00003270  00000-0  23836-3 0  9994
2 44748  53.0548 314.5249 0001397  94.2675 265.8473 15.06395440224544
1 44748U 19074AM  23343.31182184  .00003206  00000-0  23405-3 0  9999
2 44748  53.0547 313.9285 0001397  92.8784 267.2365 15.06396342224392
1 44748U 19074AM  23345.16953244  .00002126  00000-0  16158-3 0  9994
2 44748  53.0550 305.5907 0001329  94.4705 265.6436 15.06401535224673
1 44748U 19074AM  23345.16953244  .00002126  00000-0  16158-3 0  9994
2 44748  53.0550 305.5907 0001329  94.4705 265.6436 15.06401535224842
1 44748U 19074AM  23346.09838715  .00001718  00000-0  13417-3 0  9993
2 44748  53.0551 301.4238 0001408  93.8408 266.2742 15.06402915224813
1 44748U 19074AM  23347.15994230  .00000260  00000-0  36380-4 0  9992
2 44748  53.0558 296.6601 0001464  93.9691 266.1465 15.06394321224975
1 44748U 19074AM  23347.15994230  .00000260  00000-0  36380-4 0  9992
2 44748  53.0558 296.6601 0001464  93.9691 266.1465 15.06394321225145
1 44748U 19074AM  23348.08878939  .00001189  00000-0  98696-4 0  9991
2 44748  53.0547 292.4872 0001270  85.5780 274.5354 15.06409366225111
1 44748U 19074AM  23348.08878939  .00001189  00000-0  98696-4 0  9991
2 44748  53.0547 292.4872 0001270  85.5780 274.5354 15.06409366225289
1 44748U 19074AM  23349.15034613 -.00000161  00000-0  80700-5 0  9991
2 44748  53.0546 287.7216 0001364  83.8654 276.2490 15.06395099225278
1 44748U 19074AM  23349.15034613 -.00000161  00000-0  80700-5 0  9991
2 44748  53.0546 287.7216 0001364  83.8654 276.2490 15.06395099225447
1 44748U 19074AM  23350.14555756  .00021004  00000-0  14256-2 0  9996
2 44748  53.0548 283.2528 0001666  90.6324 269.4856 15.06377853225427
1 44748U 19074AM  23350.14555756  .00021004  00000-0  14256-2 0  9996
2 44748  53.0548 283.2528 0001666  90.6324 269.4856 15.06377853225595
1 44748U 19074AM  23351.07440467  .00000947  00000-0  82477-4 0  9996
2 44748  53.0553 279.0822 0001576  80.3831 279.7335 15.06395412225564
1 44748U 19074AM  23351.07440467  .00000947  00000-0  82477-4 0  9996
2 44748  53.0553 279.0822 0001576  80.3831 279.7335 15.06395412225733
1 44748U 19074AM  23351.93690595  .00004736  00000-0  33652-3 0  9990
2 44748  53.0545 275.2110 0001518  72.2387 287.8767 15.06412809225698
1 44748U 19074AM  23352.06959825  .00009610  00000-0  66279-3 0  9996
2 44748  53.0549 274.6149 0001663  80.7102 279.4075 15.06419731225710
1 44748U 19074AM  23352.06959825  .00009610  00000-0  66279-3 0  9996
2 44748  53.0549 274.6149 0001663  80.7102 279.4075 15.06419731225888
1 44748U 19074AM  23352.93211811 -.00000084  00000-0  13276-4 0  9995
2 44748  53.0554 270.7439 0001520 110.3450 249.7702 15.06391117225841
1 44748U 19074AM  23352.99846545 -.00000004  00000-0  18613-4 0  9991
2 44748  53.0550 270.4456 0001483 113.4451 246.6694 15.06390482225857
1 44748U 19074AM  23352.99846545 -.00000004  00000-0  18613-4 0  9991
2 44748  53.0550 270.4456 0001483 113.4451 246.6694 15.06390482226027
1 44748U 19074AM  23354.06002606  .00008860  00000-0  61307-3 0  9997
2 44748  53.0544 265.6809 0001383 103.7841 256.3302 15.06393300226017
1 44748U 19074AM  23354.06002606  .00008860  00000-0  61307-3 0  9997
2 44748  53.0544 265.6809 0001383 103.7841 256.3302 15.06393300226185
1 44748U 19074AM  23354.92253591  .00005637  00000-0  39702-3 0  9996
2 44748  53.0543 261.8087 0001509 102.2908 257.8250 15.06401220226143
1 44748U 19074AM  23355.05522942  .00004344  00000-0  31034-3 0  9994
2 44748  53.0539 261.2130 0001392  88.9311 271.1837 15.06402287226165
